TITAN 4B R/B            
1 26474U 00047B   25312.46569384  .00005700  00000+0  36640-3 0  9995
2 26474  67.9916  21.0885 0042321 184.4743 175.6034 15.08404185374624
ENVISAT                 
1 27386U 02009A   25312.49597515  .00000221  00000+0  85382-4 0  9999
2 27386  98.3542 264.1146 0001308  83.4675  27.0711 14.38979323241743
IDEFIX & ARIANE 42P R/B 
1 27422U 02021B   25312.39013522  .00000479  00000+0  19886-3 0  9994
2 27422  98.5734 247.5367 0011620 179.2426 180.8776 14.30910901226678
AQUA                    
1 27424U 02022A   25312.53278241  .00001752  00000+0  36169-3 0  9992
2 27424  98.3985 272.8683 0000994  49.1367  15.8133 14.61681510251036
CZ-4B R/B               
1 27432U 02024C   25312.40016437  .00000105  00000+0  76978-4 0  9990
2 27432  98.9053   1.2829 0050258   8.6550   2.4026 14.14517012212094
MIDORI II (ADEOS-II)    
1 27597U 02056A   25312.48076375  .00000462  00000+0  19984-3 0  9991
2 27597  98.7580 265.2676 0001519  39.8703 320.2589 14.29168926192985
H-2A R/B                
1 27601U 02056E   25312.49209896  .00000427  00000+0  16443-3 0  9992
2 27601  98.3013 272.6227 0070588 161.8262 308.3477 14.33638051196747
CZ-4B R/B               
1 28059U 03049C   25312.48357147  .00000657  00000+0  16278-3 0  9996
2 28059  98.6764 297.7579 0047197 241.0192 118.6269 14.54859887168972
CZ-2C R/B               
1 28222U 04012C   25312.09526672  .00041793  00000+0  67848-3 0  9992
2 28222  97.7480   1.9304 0019867  40.4944 319.7782 15.52395851185348
SL-16 R/B               
1 28353U 04021B   25312.46689301  .00000085  00000+0  68944-4 0  9995
2 28353  70.9968 126.8859 0006762 235.7232 124.3251 14.14570038105698
CZ-4B R/B               
1 28415U 04035C   25312.09204518  .00011432  00000+0  43201-3 0  9997
2 28415  97.3652 342.9099 0035166  41.9768 318.4156 15.26555935161345
CZ-2C R/B               
1 28480U 04046B   25312.38924698  .00000260  00000+0  11146-3 0  9991
2 28480  98.1956 229.9083 0140027 153.1347 207.7176 14.26917176 91209
