CCSDS_OMM_VERS = 2.0
CREATION_DATE  = 
ORIGINATOR     = 

OBJECT_NAME    = TITAN 4B R/B
OBJECT_ID      = 2000-047B
CENTER_NAME    = EARTH
REF_FRAME      = TEME
TIME_SYSTEM    = UTC
MEAN_ELEMENT_THEORY = SGP/SGP4

EPOCH          = 2025-11-08T11:10:35.947776
MEAN_MOTION    = 15.08404185
ECCENTRICITY   = .0042321
INCLINATION    = 67.9916
RA_OF_ASC_NODE = 21.0885
ARG_OF_PERICENTER = 184.4743
MEAN_ANOMALY   = 175.6034

EPHEMERIS_TYPE = 0
CLASSIFICATION_TYPE = U
NORAD_CAT_ID   = 26474
ELEMENT_SET_NO = 999
REV_AT_EPOCH   = 37462
BSTAR          = .3664E-3
MEAN_MOTION_DOT = .57E-4
MEAN_MOTION_DDOT = 0

CCSDS_OMM_VERS = 2.0
CREATION_DATE  = 
ORIGINATOR     = 

OBJECT_NAME    = ENVISAT
OBJECT_ID      = 2002-009A
CENTER_NAME    = EARTH
REF_FRAME      = TEME
TIME_SYSTEM    = UTC
MEAN_ELEMENT_THEORY = SGP/SGP4

EPOCH          = 2025-11-08T11:54:12.252960
MEAN_MOTION    = 14.38979323
ECCENTRICITY   = .0001308
INCLINATION    = 98.3542
RA_OF_ASC_NODE = 264.1146
ARG_OF_PERICENTER = 83.4675
MEAN_ANOMALY   = 27.0711

EPHEMERIS_TYPE = 0
CLASSIFICATION_TYPE = U
NORAD_CAT_ID   = 27386
ELEMENT_SET_NO = 999
REV_AT_EPOCH   = 24174
BSTAR          = .85382E-4
MEAN_MOTION_DOT = .221E-5
MEAN_MOTION_DDOT = 0

CCSDS_OMM_VERS = 2.0
CREATION_DATE  = 
ORIGINATOR     = 

OBJECT_NAME    = IDEFIX & ARIANE 42P R/B
OBJECT_ID      = 2002-021B
CENTER_NAME    = EARTH
REF_FRAME      = TEME
TIME_SYSTEM    = UTC
MEAN_ELEMENT_THEORY = SGP/SGP4

EPOCH          = 2025-11-08T09:21:47.683008
MEAN_MOTION    = 14.30910901
ECCENTRICITY   = .001162
INCLINATION    = 98.5734
RA_OF_ASC_NODE = 247.5367
ARG_OF_PERICENTER = 179.2426
MEAN_ANOMALY   = 180.8776

EPHEMERIS_TYPE = 0
CLASSIFICATION_TYPE = U
NORAD_CAT_ID   = 27422
ELEMENT_SET_NO = 999
REV_AT_EPOCH   = 22667
BSTAR          = .19886E-3
MEAN_MOTION_DOT = .479E-5
MEAN_MOTION_DDOT = 0

CCSDS_OMM_VERS = 2.0
CREATION_DATE  = 
ORIGINATOR     = 

OBJECT_NAME    = AQUA
OBJECT_ID      = 2002-022A
CENTER_NAME    = EARTH
REF_FRAME      = TEME
TIME_SYSTEM    = UTC
MEAN_ELEMENT_THEORY = SGP/SGP4

EPOCH          = 2025-11-08T12:47:12.400224
MEAN_MOTION    = 14.61681510
ECCENTRICITY   = .0000994
INCLINATION    = 98.3985
RA_OF_ASC_NODE = 272.8683
ARG_OF_PERICENTER = 49.1367
MEAN_ANOMALY   = 15.8133

EPHEMERIS_TYPE = 0
CLASSIFICATION_TYPE = U
NORAD_CAT_ID   = 27424
ELEMENT_SET_NO = 999
REV_AT_EPOCH   = 25103
BSTAR          = .36169E-3
MEAN_MOTION_DOT = .1752E-4
MEAN_MOTION_DDOT = 0

CCSDS_OMM_VERS = 2.0
CREATION_DATE  = 
ORIGINATOR     = 

OBJECT_NAME    = CZ-4B R/B
OBJECT_ID      = 2002-024C
CENTER_NAME    = EARTH
REF_FRAME      = TEME
TIME_SYSTEM    = UTC
MEAN_ELEMENT_THEORY = SGP/SGP4

EPOCH          = 2025-11-08T09:36:14.201568
MEAN_MOTION    = 14.14517012
ECCENTRICITY   = .0050258
INCLINATION    = 98.9053
RA_OF_ASC_NODE = 1.2829
ARG_OF_PERICENTER = 8.6550
MEAN_ANOMALY   = 2.4026

EPHEMERIS_TYPE = 0
CLASSIFICATION_TYPE = U
NORAD_CAT_ID   = 27432
ELEMENT_SET_NO = 999
REV_AT_EPOCH   = 21209
BSTAR          = .76978E-4
MEAN_MOTION_DOT = .105E-5
MEAN_MOTION_DDOT = 0

CCSDS_OMM_VERS = 2.0
CREATION_DATE  = 
ORIGINATOR     = 

OBJECT_NAME    = MIDORI II (ADEOS-II)
OBJECT_ID      = 2002-056A
CENTER_NAME    = EARTH
REF_FRAME      = TEME
TIME_SYSTEM    = UTC
MEAN_ELEMENT_THEORY = SGP/SGP4

EPOCH          = 2025-11-08T11:32:17.988000
MEAN_MOTION    = 14.29168926
ECCENTRICITY   = .0001519
INCLINATION    = 98.7580
RA_OF_ASC_NODE = 265.2676
ARG_OF_PERICENTER = 39.8703
MEAN_ANOMALY   = 320.2589

EPHEMERIS_TYPE = 0
CLASSIFICATION_TYPE = U
NORAD_CAT_ID   = 27597
ELEMENT_SET_NO = 999
REV_AT_EPOCH   = 19298
BSTAR          = .19984E-3
MEAN_MOTION_DOT = .462E-5
MEAN_MOTION_DDOT = 0

CCSDS_OMM_VERS = 2.0
CREATION_DATE  = 
ORIGINATOR     = 

OBJECT_NAME    = H-2A R/B
OBJECT_ID      = 2002-056E
CENTER_NAME    = EARTH
REF_FRAME      = TEME
TIME_SYSTEM    = UTC
MEAN_ELEMENT_THEORY = SGP/SGP4

EPOCH          = 2025-11-08T11:48:37.350144
MEAN_MOTION    = 14.33638051
ECCENTRICITY   = .0070588
INCLINATION    = 98.3013
RA_OF_ASC_NODE = 272.6227
ARG_OF_PERICENTER = 161.8262
MEAN_ANOMALY   = 308.3477

EPHEMERIS_TYPE = 0
CLASSIFICATION_TYPE = U
NORAD_CAT_ID   = 27601
ELEMENT_SET_NO = 999
REV_AT_EPOCH   = 19674
BSTAR          = .16443E-3
MEAN_MOTION_DOT = .427E-5
MEAN_MOTION_DDOT = 0

CCSDS_OMM_VERS = 2.0
CREATION_DATE  = 
ORIGINATOR     = 

OBJECT_NAME    = CZ-4B R/B
OBJECT_ID      = 2003-049C
CENTER_NAME    = EARTH
REF_FRAME      = TEME
TIME_SYSTEM    = UTC
MEAN_ELEMENT_THEORY = SGP/SGP4

EPOCH          = 2025-11-08T11:36:20.575008
MEAN_MOTION    = 14.54859887
ECCENTRICITY   = .0047197
INCLINATION    = 98.6764
RA_OF_ASC_NODE = 297.7579
ARG_OF_PERICENTER = 241.0192
MEAN_ANOMALY   = 118.6269

EPHEMERIS_TYPE = 0
CLASSIFICATION_TYPE = U
NORAD_CAT_ID   = 28059
ELEMENT_SET_NO = 999
REV_AT_EPOCH   = 16897
BSTAR          = .16278E-3
MEAN_MOTION_DOT = .657E-5
MEAN_MOTION_DDOT = 0

CCSDS_OMM_VERS = 2.0
CREATION_DATE  = 
ORIGINATOR     = 

OBJECT_NAME    = CZ-2C R/B
OBJECT_ID      = 2004-012C
CENTER_NAME    = EARTH
REF_FRAME      = TEME
TIME_SYSTEM    = UTC
MEAN_ELEMENT_THEORY = SGP/SGP4

EPOCH          = 2025-11-08T02:17:11.044608
MEAN_MOTION    = 15.52395851
ECCENTRICITY   = .00198676
INCLINATION    = 97.7480
RA_OF_ASC_NODE = 1.9304
ARG_OF_PERICENTER = 40.4944
MEAN_ANOMALY   = 319.7782

EPHEMERIS_TYPE = 0
CLASSIFICATION_TYPE = U
NORAD_CAT_ID   = 28222
ELEMENT_SET_NO = 999
REV_AT_EPOCH   = 18534
BSTAR          = .67848073E-3
MEAN_MOTION_DOT = .41793E-3
MEAN_MOTION_DDOT = 0

CCSDS_OMM_VERS = 2.0
CREATION_DATE  = 
ORIGINATOR     = 

OBJECT_NAME    = SL-16 R/B
OBJECT_ID      = 2004-021B
CENTER_NAME    = EARTH
REF_FRAME      = TEME
TIME_SYSTEM    = UTC
MEAN_ELEMENT_THEORY = SGP/SGP4

EPOCH          = 2025-11-08T11:12:19.556064
MEAN_MOTION    = 14.14570038
ECCENTRICITY   = .0006762
INCLINATION    = 70.9968
RA_OF_ASC_NODE = 126.8859
ARG_OF_PERICENTER = 235.7232
MEAN_ANOMALY   = 124.3251

EPHEMERIS_TYPE = 0
CLASSIFICATION_TYPE = U
NORAD_CAT_ID   = 28353
ELEMENT_SET_NO = 999
REV_AT_EPOCH   = 10569
BSTAR          = .68944E-4
MEAN_MOTION_DOT = .85E-6
MEAN_MOTION_DDOT = 0

CCSDS_OMM_VERS = 2.0
CREATION_DATE  = 
ORIGINATOR     = 

OBJECT_NAME    = CZ-4B R/B
OBJECT_ID      = 2004-035C
CENTER_NAME    = EARTH
REF_FRAME      = TEME
TIME_SYSTEM    = UTC
MEAN_ELEMENT_THEORY = SGP/SGP4

EPOCH          = 2025-11-08T02:12:32.703552
MEAN_MOTION    = 15.26555935
ECCENTRICITY   = .00351661
INCLINATION    = 97.3652
RA_OF_ASC_NODE = 342.9099
ARG_OF_PERICENTER = 41.9768
MEAN_ANOMALY   = 318.4156

EPHEMERIS_TYPE = 0
CLASSIFICATION_TYPE = U
NORAD_CAT_ID   = 28415
ELEMENT_SET_NO = 999
REV_AT_EPOCH   = 16134
BSTAR          = .43200572E-3
MEAN_MOTION_DOT = .11432E-3
MEAN_MOTION_DDOT = 0

CCSDS_OMM_VERS = 2.0
CREATION_DATE  = 
ORIGINATOR     = 

OBJECT_NAME    = CZ-2C R/B
OBJECT_ID      = 2004-046B
CENTER_NAME    = EARTH
REF_FRAME      = TEME
TIME_SYSTEM    = UTC
MEAN_ELEMENT_THEORY = SGP/SGP4

EPOCH          = 2025-11-08T09:20:30.939072
MEAN_MOTION    = 14.26917176
ECCENTRICITY   = .0140027
INCLINATION    = 98.1956
RA_OF_ASC_NODE = 229.9083
ARG_OF_PERICENTER = 153.1347
MEAN_ANOMALY   = 207.7176

EPHEMERIS_TYPE = 0
CLASSIFICATION_TYPE = U
NORAD_CAT_ID   = 28480
ELEMENT_SET_NO = 999
REV_AT_EPOCH   = 9120
BSTAR          = .11146E-3
MEAN_MOTION_DOT = .26E-5
MEAN_MOTION_DDOT = 0

